HELIOS 1B               
1 25977U 99064A   20256.42454344  .00000038  00000-0  11900-4 0  9999
2 25977  98.2920  54.3942 0002476  77.8719 282.2770 14.82493523388005
TERRA                   
1 25994U 99068A   20256.51806923  .00000006  00000-0  11394-4 0  9998
2 25994  98.2066 329.5683 0001547 110.5589 249.5778 14.57114716102994
SL-16 R/B               
1 26070U 00006B   20256.51412038  .00000267  00000-0  16102-3 0  9998
2 26070  71.0050 350.3062 0017067 344.6025  15.4576 14.15467737 64951
MTI                     
1 26102U 00014A   20256.62739658  .00003269  00000-0  47767-4 0  9992
2 26102  97.4917 143.1263 0005615 270.8012  89.2594 15.56437851138078
TITAN 4B R/B            
1 26474U 00047B   20256.23656758  .00000018  00000-0  12470-4 0  9998
2 26474  67.9939 196.8100 0051093 103.2621 257.4227 14.95985122 92226
ENVISAT                 
1 27386U 02009A   20256.54976409  .00000022  00000-0  20648-4 0  9994
2 27386  98.1386 259.0249 0001284  86.4077  22.0951 14.37991600971063
IDEFIX & ARIANE 42P R/B 
1 27422U 02021B   20256.47165903 -.00000010  00000-0  12416-4 0  9992
2 27422  98.3597 213.9718 0011892 339.7743  20.2967 14.29293658957598
AQUA                    
1 27424U 02022A   20256.49654369  .00000044  00000-0  19756-4 0  9996
2 27424  98.2012 195.8766 0002773  77.4439  67.2761 14.57112699976598
CZ-4B R/B               
1 27432U 02024C   20256.51892106 -.00000024  00000-0  11704-4 0  9997
2 27432  99.0908 260.1978 0049526 291.2660 178.2437 14.14096682945955
MIDORI II (ADEOS-II)    
1 27597U 02056A   20256.45443593  .00000017  00000-0  24365-4 0  9997
2 27597  98.5260 201.8803 0002145  88.3546 271.7880 14.27458992924223
H-2A R/B                
1 27601U 02056E   20256.53166875  .00000036  00000-0  27683-4 0  9994
2 27601  98.2203 287.7968 0072480  19.2891 101.1922 14.31967323927159
CZ-4B R/B               
1 28059U 03049C   20256.52779620 -.00000027  00000-0  53318-5 0  9998
2 28059  98.4817 174.0280 0049069 231.6422 128.0359 14.52609357895476
CZ-2C R/B               
1 28222U 04012C   20256.50978684  .00000211  00000-0  16574-4 0  9996
2 28222  97.6860 219.3291 0048611  92.1148  24.1732 15.10458080899137
SL-16 R/B               
1 28353U 04021B   20256.34727014 -.00000111  00000-0 -33243-4 0  9995
2 28353  70.9990 117.0859 0006272 224.3590 135.7030 14.14241009839421
CZ-4B R/B               
1 28415U 04035C   20256.55772608 -.00000163  00000-0 -62729-5 0  9990
2 28415  97.6062 297.1444 0052850  56.5257 304.1006 15.06903098876751
CZ-2C R/B               
1 28480U 04046B   20256.52036255 -.00000023  00000-0  66933-5 0  9997
2 28480  98.0730 284.6925 0141190 327.7304 149.4889 14.25727720822821
ARIANE 5 R/B            
1 28499U 04049H   20256.37963803 -.00000005  00000-0  69035-5 0  9997
2 28499  98.0588 358.4482 0091941 353.2217  46.3257 14.80044253848999
CZ-2D R/B               
1 28738U 05024B   20256.53553332  .00000349  00000-0  23889-4 0  9993
2 28738  97.3798 276.2082 0010450 238.7796 121.2411 15.12096225834563
SUZAKU (ASTRO-EII)      
1 28773U 05025A   20256.16914741  .00000690  00000-0  29142-4 0  9994
2 28773  31.3813 172.7656 0004376 357.3611   2.7013 15.17670961837147
ALOS (DAICHI)           
1 28931U 06002A   20256.49723421  .00000052  00000-0  18914-4 0  9992
2 28931  97.8524 237.9958 0001456 110.6036 249.5318 14.62737403780426
H-2A R/B                
1 28932U 06002B   20256.56120360  .00000458  00000-0  47945-4 0  9990
2 28932  98.3275 251.5239 0089492  37.2943  73.8729 14.92280184794136
AKARI (ASTRO-F)         
1 28939U 06005A   20256.50516475  .00003171  00000-0  84882-4 0  9996
2 28939  98.2400 240.6719 0092956  20.4644 340.0282 15.34667898794248
RESURS-DK 1             
1 29228U 06021A   20256.55789135  .00000023  00000-0  90646-5 0  9995
2 29228  69.9367 326.2545 0006929 305.3636  54.6877 15.02565625785839
GENESIS 1               
1 29252U 06029A   20256.55885304  .00000003  00000-0  10097-4 0  9994
2 29252  64.5228  16.6727 0007866  29.2629 330.8933 15.18206520781325
CZ-4B R/B               
1 29507U 06046C   20256.50822141 -.00000755  00000-0 -53358-4 0  9994
2 29507  97.7395 278.1680 0047900 228.5630 131.1474 15.00591307758421
CZ-2C R/B               
1 31114U 07010B   20256.50872181 -.00000018  00000-0  10079-4 0  9996
2 31114  98.2523 103.5004 0060099  14.5564 345.7328 14.19331031695359
COSMO-SKYMED 1          
1 31598U 07023A   20256.49885635 -.00000770  00000-0 -90163-4 0  9990
2 31598  97.8877  78.3935 0001455  89.1135 271.0230 14.82154695717725
GENESIS 2               
1 31789U 07028A   20256.56263416  .00000356  00000-0  27923-4 0  9994
2 31789  64.5042  58.4178 0034884 234.3537 125.4336 15.17341355728396
COSMOS 2428             
1 31792U 07029A   20256.54144492 -.00000321  00000-0 -14824-3 0  9998
2 31792  70.9013  90.0541 0010712 299.0178  60.9868 14.12284869681074
SL-16 R/B               
1 31793U 07029B   20256.54360476 -.00000289  00000-0 -12572-3 0  9992
2 31793  70.9732  63.4152 0002139 261.3154 154.9052 14.14432032682007
KORONAS-FOTON           
1 33504U 09003A   20256.38239458 -.00000087  00000-0 -62557-5 0  9991
2 33504  82.4421 136.3388 0018622 343.2333  16.8281 15.15697585640659
H-2A R/B                
1 38341U 12025E   20256.42481003  .00000153  00000-0  25622-4 0  9996
2 38341  98.5109  57.1248 0054587 313.4276  46.2399 14.84067865450343
CUSAT 2 & FALCON 9 R/B  
1 39271U 13055G   20256.29645614  .00002581  00000-0  62345-4 0  9998
2 39271  80.9688 173.5461 0583359 268.9402  84.4941 14.49011559363308
SL-4 R/B                
1 39679U 14021B   20256.48244574 -.00000018  00000-0  17306-4 0  9996
2 39679  51.6173  63.5194 0171116 247.2880 110.9924 15.06478477352145
ALOS-2                  
1 39766U 14029A   20256.55462051 -.00000274  00000-0 -29867-4 0  9991
2 39766  97.9228 351.9063 0001594  89.7517 270.3879 14.79468591340572
CZ-2C R/B               
1 40306U 14071B   20256.47637330  .00002206  00000-0  47836-4 0  9996
2 40306  97.3311 203.8056 0014482 202.2933 157.7688 15.45438081327286
SL-27 R/B               
1 40354U 14084B   20256.49799407  .00000826  00000-0  21306-4 0  9999
2 40354  74.7379 207.9988 0037597 350.6307   9.4198 15.40350044321534
YAOGAN 29               
1 41038U 15069A   20256.49195591  .00000007  00000-0  78386-5 0  9999
2 41038  98.0171 244.3472 0001417  43.2105 316.9218 14.80458698259153
ASTRO-H (HITOMI)        
1 41337U 16012A   20256.24817472  .00000203  00000-0  94673-5 0  9997
2 41337  31.0049 179.4357 0012486 209.2744 150.7191 14.98706730250536
SHENZHOU-11 MODULE      
1 41868U 16061G   20256.56719360  .00155757  20366-4  13770-3 0  9995
2 41868  42.7849 305.8188 0013445  66.6010  55.0767 16.12032105220052
HXMT (HUIYAN)           
1 42758U 17034A   20256.45599455  .00000057  00000-0  17258-4 0  9991
2 42758  43.0189 278.6916 0010975 221.6049 279.4195 15.08885803179019
CZ-2C R/B               
1 43521U 18054D   20256.49551251  .00000512  00000-0  29802-4 0  9993
2 43521  35.1549   3.5135 0082348 165.9276 194.3756 15.11067717122323
AEOLUS                  
1 43600U 18066A   20256.51165879  .00026471  00000-0  10424-3 0  9995
2 43600  96.7216 261.6000 0005995  90.2064 269.9896 15.86825547119179
SAOCOM 1A               
1 43641U 18076A   20256.50712686 -.00000021  00000-0  39646-5 0  9997
2 43641  97.8901  81.3802 0001459  81.4614 278.6767 14.82156893104497
CREW DRAGON DEMO-1 DEB  
1 44064U 19011B   20256.19778214  .00012174  00000-0  11737-3 0  9991
2 44064  51.6323 232.3190 0003923  40.2579 319.8707 15.66958847 86507
